#aV2009 11 23  0  0   .00000000      96 DD+AD WGS84 FIT  NGA
## 1559  86400.00000000   900.00000000 55158  .0000000000000
+   32     1  2  3  4  5  6  7  8  9 10 11 12 13 14 15 16 17
+         18 19 20 21 22 23 24 25 26 27 28 29 30 31 32  0  0
+          0  0  0  0  0  0  0  0  0  0  0  0  0  0  0  0  0
+          0  0  0  0  0  0  0  0  0  0  0  0  0  0  0  0  0
+          0  0  0  0  0  0  0  0  0  0  0  0  0  0  0  0  0
++         0  0  0  0  0  0  0  0  0  0  0  0  0  0  0  0  0
++         0  0  0  0  0  0  0  0  0  0  0  0  0  0  0  0  0
++         0  0  0  0  0  0  0  0  0  0  0  0  0  0  0  0  0
++         0  0  0  0  0  0  0  0  0  0  0  0  0  0  0  0  0
++         0  0  0  0  0  0  0  0  0  0  0  0  0  0  0  0  0
%c cc cc ccc ccc cccc cccc cccc cccc ccccc ccccc ccccc ccccc
%c cc cc ccc ccc cccc cccc cccc cccc ccccc ccccc ccccc ccccc
%f  0.0000000  0.000000000  0.00000000000  0.000000000000000
%f  0.0000000  0.000000000  0.00000000000  0.000000000000000
%i    0    0    0    0      0      0      0      0         0
%i    0    0    0    0      0      0      0      0         0
/*      NGA, ST. LOUIS,MO.                                  
/*   EPHEMERIS COMPUTED FROM  3 DAYS OF DATA                
/* CCCCCCCCCCCCCCCCCCCCCCCCCCCCCCCCCCCCCCCCCCCCCCCCCCCCCCCCC
/* CCCCCCCCCCCCCCCCCCCCCCCCCCCCCCCCCCCCCCCCCCCCCCCCCCCCCCCCC
*  2009 11 23 20 45   .00000000                                                 
P  1 -15652.925302 -10781.142526  18493.376245    -66.815909                    
V  1  -3860.834881 -23376.828075 -16701.474557      -.023058                    
P  2   2730.061303 -15458.012687  21376.429905    195.168951                    
V  2  26213.834364   7829.083883   1877.397060       .045325                    
P  3  -5593.580486  22139.925992 -13617.010098    478.548893                    
V  3 -13464.923277  10773.999447  24003.185477       .050842                    
P  4  16028.208658  -9404.379118  18946.183593   -373.432315                    
V  4  22743.305083   8809.939448 -14376.806292      -.182972                    
P  5  -1861.221641 -25865.720737   5526.758160    -39.470455                    
V  5   4272.156374   6265.983551  30767.616935       .063581                    
P  6 -10323.736227  21796.031187 -10835.373002    262.404949                    
V  6 -12271.094709   7707.275760  26854.966281       .013813                    
P  7  25692.501623   6813.624814  -1878.999873      7.194903                    
V  7   1523.969377   2996.345416  31732.003010      -.007240                    
P  8  23029.701150   -646.875504 -13698.002601       .075793                    
V  8  15528.163633   7228.421524  25307.068526       .004438                    
P  9 -16195.555248 -15220.474747 -15237.503081     90.141578                    
V  9  17840.069716   3554.135732 -23494.926596       .021818                    
P 10   1567.042871 -24713.616592   8942.874338    -28.977276                    
V 10   5224.195245  10899.598311  29011.886330      -.007334                    
P 11  19983.408778  12272.378535 -13039.195154    -30.724899                    
V 11 -16497.486263   2252.192854 -23233.265444      -.018929                    
P 12 -11078.713932 -22532.682952   8917.426805   -185.974711                    
V 12   -160.792657 -11415.153714 -29095.500297       .052538                    
P 13  19728.028923  -1154.709998  17628.951461    306.361095                    
V 13 -16879.559459  15000.476962  19716.970586       .001259                    
P 14 -21734.004459  14449.059766  -4410.833625    -20.737766                    
V 14   3103.769215  -5294.039918 -31763.864682       .047594                    
P 15   -177.516460 -18405.155661 -19086.931095   -319.660680                    
V 15  18713.694939 -15644.879532  14974.636907       .006580                    
P 16  -4093.365226  23059.231130  12332.095079    -11.764631                    
V 16  -5217.947908 -14939.792037  26541.840135      -.042224                    
P 17  21336.222514 -15119.546324  -3900.804311    105.193744                    
V 17  -1831.387562   5602.178690 -31341.403958       .036374                    
P 18 -16094.392540  -4479.335335 -20466.941658     29.744147                    
V 18  -4243.393058 -26234.303742   8598.317853       .027589                    
P 19   1024.191637  17196.479894 -20102.005624      -.259077                    
V 19 -20979.823702  14895.633336  11925.774190      -.020097                    
P 20  14020.168380  18832.007209  12345.822845     66.961603                    
V 20   1111.433840  16115.466466 -25527.481179      -.008496                    
P 21 -25855.359813  -3986.786371  -5929.565634    -23.219806                    
V 21  -6429.207191  -5368.554865  29532.390229      -.023763                    
P 22 -13420.681305   9925.419688 -20479.627056    185.606803                    
V 22  -5931.133379 -25829.616937  -8637.700120      -.009764                    
P 23  11720.294425   9591.649271  21809.016382    385.577869                    
V 23 -20516.153476  18626.876419   2533.925352      -.006169                    
P 24 -21619.269098 -13491.600841   7119.231360    239.046138                    
V 24   9514.750294    161.049543  29903.855798       .032030                    
P 25  24243.825641   9190.334915   5627.000312     30.062821                    
V 25  -7109.052728   1013.863622  31048.419479       .143682                    
P 26 -22607.375496   7615.185070 -12705.349097      1.948107                    
V 26  11047.016477 -10269.193429 -26510.330867      -.021932                    
P 27 -13708.878116 -14985.569352 -16456.550975    102.386853                    
V 27  21892.131530   3866.654310 -20838.440326       .032441                    
P 28  13660.622239  -6643.540227 -21307.271018    -25.217192                    
V 28   5759.178733  27550.954204  -5103.012777       .002590                    
P 29 -18178.361189  -2166.415436  19316.763815     76.599104                    
V 29  17557.246840 -16933.080041  14731.378269       .029242                    
P 30 -15761.661286 -12665.787628  16865.987365    195.727222                    
V 30  -3831.237031 -21913.742782 -19534.332338       .030950                    
P 31 -13349.612492  10479.756791  20681.621041    -60.413303                    
V 31 -24280.467833  -8448.107843 -11368.129010       .008857                    
P 32   7966.978066  24721.734077   6646.596433    152.009858                    
V 32  -1289.146517   8122.439951 -30092.298668      -.076452                    
EOF
